STARLINK-1308
1 15419C 20019BM  21326.16491911 -.00000094  00000-0 -63228-5 0  3266
2 15419  53.0537   8.0016 0001394  68.5416  23.6253 15.06401772    15
